NORAD_CAT_ID,OBJECT_NAME,OBJECT_TYPE,EPOCH,MEAN_MOTION,ECCENTRICITY,INCLINATION,RA_OF_ASC_NODE,ARG_OF_PERICENTER,MEAN_ANOMALY,BSTAR,MEAN_MOTION_DOT,MEAN_MOTION_DDOT,TLE_LINE0,TLE_LINE1,TLE_LINE2,SEMIMAJOR_AXIS,PERIOD,APOGEE,PERIGEE,DECAYED
56791.0,STARLINK-5977,PAYLOAD,2024-05-29 12:31:23,14.9833015,0.0003755,69.9989,181.1417,269.4493,90.6236,5.6327e-06,-2.6e-07,0.0,0 STARLINK-5977,1 56791U 23078AA  24150.52180531 -.00000026  00000-0  56327-5 0  9992,2 56791  69.9989 181.1417 0003755 269.4493  90.6236 14.98330150 55448,6950.192,96.107,574.667,569.448,0.0
56791.0,STARLINK-5977,PAYLOAD,2024-05-30 04:32:44,14.98331072,0.0003743,69.9988,179.4584,268.7402,91.3328,-2.2495e-05,-3.62e-06,0.0,0 STARLINK-5977,1 56791U 23078AA  24151.18940483 -.00000362  00000-0 -22495-4 0  9997,2 56791  69.9988 179.4584 0003743 268.7402  91.3328 14.98331072 55805,6950.19,96.107,574.656,569.453,0.0
56791.0,STARLINK-5977,PAYLOAD,2024-05-30 10:57:16,14.9833051,0.0003752,69.9987,178.7852,268.7379,91.3351,-2.6181e-05,-4.06e-06,0.0,0 STARLINK-5977,1 56791U 23078AA  24151.45644509 -.00000406  00000-0 -26181-4 0  9992,2 56791  69.9987 178.7852 0003752 268.7379  91.3351 14.98330510 55584,6950.191,96.107,574.664,569.449,0.0
56791.0,STARLINK-5977,PAYLOAD,2024-05-31 04:34:45,14.98329035,0.0003795,69.9985,176.9337,269.2379,90.8346,1.8326e-06,-7.1e-07,0.0,0 STARLINK-5977,1 56791U 23078AA  24152.19080495 -.00000071  00000-0  18326-5 0  9992,2 56791  69.9985 176.9337 0003795 269.2379  90.8346 14.98329035 55952,6950.196,96.107,574.698,569.423,0.0
56791.0,STARLINK-5977,PAYLOAD,2024-05-31 10:59:17,14.98329048,0.0003784,69.9985,176.2604,268.6571,91.4155,3.1201e-06,-5.6e-07,0.0,0 STARLINK-5977,1 56791U 23078AA  24152.45784499 -.00000056  00000-0  31201-5 0  9996,2 56791  69.9985 176.2604 0003784 268.6571  91.4155 14.98329048 55732,6950.196,96.107,574.691,569.431,0.0
56791.0,STARLINK-5977,PAYLOAD,2024-05-31 18:59:58,14.98329131,0.0003859,69.9983,175.4187,270.0965,89.9751,3.3601e-06,-5.3e-07,0.0,0 STARLINK-5977,1 56791U 23078AA  24152.79164488 -.00000053  00000-0  33601-5 0  9996,2 56791  69.9983 175.4187 0003859 270.0965  89.9751 14.98329131 55786,6950.196,96.107,574.743,569.378,0.0
56791.0,STARLINK-5977,PAYLOAD,2024-06-01 04:36:46,14.98327792,0.0003867,69.9981,174.4087,269.7521,90.3195,-3.7384e-06,-1.38e-06,0.0,0 STARLINK-5977,1 56791U 23078AA  24153.19220616 -.00000138  00000-0 -37384-5 0  9994,2 56791  69.9981 174.4087 0003867 269.7521  90.3195 14.98327792 56100,6950.2,96.107,574.752,569.377,0.0
56791.0,STARLINK-5977,PAYLOAD,2024-06-01 11:01:18,14.98328251,0.0003863,69.9981,173.7354,269.6862,90.3854,1.6173e-06,-7.4e-07,0.0,0 STARLINK-5977,1 56791U 23078AA  24153.45924604 -.00000074  00000-0  16173-5 0  9992,2 56791  69.9981 173.7354 0003863 269.6862  90.3854 14.98328251 55889,6950.198,96.107,574.748,569.378,0.0
56791.0,STARLINK-5977,PAYLOAD,2024-06-02 04:38:47,14.98331173,0.0003887,69.998,171.8836,269.3409,90.7305,4.2218e-05,4.11e-06,0.0,0 STARLINK-5977,1 56791U 23078AA  24154.19360290  .00000411  00000-0  42218-4 0  9991,2 56791  69.9980 171.8836 0003887 269.3409  90.7305 14.98331173 56256,6950.189,96.107,574.756,569.353,0.0
56791.0,STARLINK-5977,PAYLOAD,2024-06-02 11:03:19,14.98332025,0.0003899,69.9981,171.2104,269.4314,90.6398,3.6811e-05,3.46e-06,0.0,0 STARLINK-5977,1 56791U 23078AA  24154.46064229  .00000346  00000-0  36811-4 0  9993,2 56791  69.9981 171.2104 0003899 269.4314  90.6398 14.98332025 56032,6950.187,96.107,574.762,569.342,0.0
56791.0,STARLINK-5977,PAYLOAD,2024-06-03 04:40:48,14.98329473,0.0003893,69.9981,169.3588,269.1854,90.8859,2.6826e-05,2.27e-06,0.0,0 STARLINK-5977,1 56791U 23078AA  24155.19500373  .00000227  00000-0  26826-4 0  9992,2 56791  69.9981 169.3588 0003893 269.1854  90.8859 14.98329473 56404,6950.195,96.107,574.765,569.354,0.0
56791.0,STARLINK-5977,PAYLOAD,2024-06-03 11:05:20,14.98330926,0.0003892,69.9982,168.6855,269.1291,90.9422,3.3113e-05,3.02e-06,0.0,0 STARLINK-5977,1 56791U 23078AA  24155.46204258  .00000302  00000-0  33113-4 0  9996,2 56791  69.9982 168.6855 0003892 269.1291  90.9422 14.98330926 56185,6950.19,96.107,574.76,569.35,0.0
56791.0,STARLINK-5977,PAYLOAD,2024-06-04 11:07:20,14.98335771,0.0003883,69.9983,166.1605,269.1668,90.9046,3.1686e-05,2.85e-06,0.0,0 STARLINK-5977,1 56791U 23078AA  24156.46343726  .00000285  00000-0  31686-4 0  9994,2 56791  69.9983 166.1605 0003883 269.1668  90.9046 14.98335771 56590,6950.175,96.107,574.739,569.341,0.0
56791.0,STARLINK-5977,PAYLOAD,2024-06-04 17:31:53,14.98332909,0.000387,69.9983,165.4871,269.493,90.5786,8.7299e-06,1.1e-07,0.0,0 STARLINK-5977,1 56791U 23078AA  24156.73047892  .00000011  00000-0  87299-5 0  9998,2 56791  69.9983 165.4871 0003870 269.4930  90.5786 14.98332909 56371,6950.184,96.107,574.739,569.359,0.0
56791.0,STARLINK-5977,PAYLOAD,2024-06-05 09:33:14,14.9833067,0.0003818,69.9984,163.8042,268.5613,91.5109,4.7788e-06,-3.6e-07,0.0,0 STARLINK-5977,1 56791U 23078AA  24157.39807960 -.00000036  00000-0  47788-5 0  9998,2 56791  69.9984 163.8042 0003818 268.5613  91.5109 14.98330670 56737,6950.191,96.107,574.709,569.402,0.0
56791.0,STARLINK-5977,PAYLOAD,2024-06-05 17:33:54,14.98329931,0.0003829,69.9984,162.9626,268.5259,91.5461,-2.759e-05,-4.22e-06,0.0,0 STARLINK-5977,1 56791U 23078AA  24157.73188065 -.00000422  00000-0 -27590-4 0  9992,2 56791  69.9984 162.9626 0003829 268.5259  91.5461 14.98329931 56529,6950.193,96.107,574.719,569.397,0.0
56791.0,STARLINK-5977,PAYLOAD,2024-06-06 09:35:15,14.9832761,0.0003742,69.9985,161.2795,268.4686,91.6044,-5.6129e-05,-7.63e-06,0.0,0 STARLINK-5977,1 56791U 23078AA  24158.39948355 -.00000763  00000-0 -56129-4 0  9999,2 56791  69.9985 161.2795 0003742 268.4686  91.6044 14.98327610 56885,6950.2,96.107,574.666,569.465,0.0
56791.0,STARLINK-5977,PAYLOAD,2024-06-07 08:01:07,14.98330598,0.0003776,69.9986,158.923,268.194,91.8786,2.9791e-05,2.62e-06,0.0,0 STARLINK-5977,1 56791U 23078AA  24159.33411946  .00000262  00000-0  29791-4 0  9992,2 56791  69.9986 158.9230 0003776 268.1940  91.8786 14.98330598 56761,6950.191,96.107,574.68,569.432,0.0
56791.0,STARLINK-5977,PAYLOAD,2024-06-07 17:37:56,14.9833036,0.0003787,69.9985,157.9126,268.1524,91.9201,2.4578e-05,2e-06,0.0,0 STARLINK-5977,1 56791U 23078AA  24159.73467956  .00000200  00000-0  24578-4 0  9998,2 56791  69.9985 157.9126 0003787 268.1524  91.9201 14.98330360 57089,6950.192,96.107,574.689,569.425,0.0
56791.0,STARLINK-5977,PAYLOAD,2024-06-08 09:39:16,14.98331101,0.00038,69.9984,156.2294,268.0172,92.0552,7.1731e-05,7.63e-06,0.0,0 STARLINK-5977,1 56791U 23078AA  24160.40227783  .00000763  00000-0  71731-4 0  9993,2 56791  69.9984 156.2294 0003800 268.0172  92.0552 14.98331101 56927,6950.189,96.107,574.696,569.413,0.0
56791.0,STARLINK-5977,PAYLOAD,2024-06-08 17:39:57,14.98329571,0.0003778,69.9985,155.3877,267.996,92.0767,2.9398e-05,2.58e-06,0.0,0 STARLINK-5977,1 56791U 23078AA  24160.73607973  .00000258  00000-0  29398-4 0  9993,2 56791  69.9985 155.3877 0003778 267.9960  92.0767 14.98329571 57233,6950.194,96.107,574.685,569.433,0.0
56791.0,STARLINK-5977,PAYLOAD,2024-06-09 09:41:18,14.98328841,0.0003795,69.9984,153.7047,268.0064,92.0661,-3.4896e-05,-5.09e-06,0.0,0 STARLINK-5977,1 56791U 23078AA  24161.40368164 -.00000509  00000-0 -34896-4 0  9994,2 56791  69.9984 153.7047 0003795 268.0064  92.0661 14.98328841 57073,6950.196,96.107,574.699,569.424,0.0
56791.0,STARLINK-5977,PAYLOAD,2024-06-10 04:54:55,14.98322391,0.0003716,69.9985,151.6848,268.0815,91.9918,-8.6746e-05,-1.128e-05,0.0,0 STARLINK-5977,1 56791U 23078AA  24162.20480986 -.00001128  00000-0 -86746-4 0  9999,2 56791  69.9985 151.6848 0003716 268.0815  91.9918 14.98322391 57456,6950.216,96.107,574.664,569.499,0.0
56791.0,STARLINK-5977,PAYLOAD,2024-06-10 09:43:19,14.98324459,0.0003684,69.9985,151.1799,267.9897,92.084,-5.6764e-05,-7.7e-06,0.0,0 STARLINK-5977,1 56791U 23078AA  24162.40508848 -.00000770  00000-0 -56764-4 0  9998,2 56791  69.9985 151.1799 0003684 267.9897  92.0840 14.98324459 57226,6950.21,96.107,574.635,569.515,0.0
56791.0,STARLINK-5977,PAYLOAD,2024-06-10 16:07:51,14.98325358,0.0003681,69.9986,150.5066,268.1039,91.9698,-2.8593e-05,-4.34e-06,0.0,0 STARLINK-5977,1 56791U 23078AA  24162.67212806 -.00000434  00000-0 -28593-4 0  9999,2 56791  69.9986 150.5066 0003681 268.1039  91.9698 14.98325358 57267,6950.207,96.107,574.631,569.514,0.0
56791.0,STARLINK-5977,PAYLOAD,2024-06-11 04:56:56,14.98328934,0.0003697,69.9984,149.1601,267.6805,92.3931,1.7986e-05,1.21e-06,0.0,0 STARLINK-5977,1 56791U 23078AA  24163.20620580  .00000121  00000-0  17986-4 0  9996,2 56791  69.9984 149.1601 0003697 267.6805  92.3931 14.98328934 57602,6950.196,96.107,574.631,569.492,0.0
56791.0,STARLINK-5977,PAYLOAD,2024-06-11 08:09:12,14.98329185,0.0003644,69.9985,148.8236,267.6197,92.4544,3.5286e-05,3.28e-06,0.0,0 STARLINK-5977,1 56791U 23078AA  24163.33972543  .00000328  00000-0  35286-4 0  9991,2 56791  69.9985 148.8236 0003644 267.6197  92.4544 14.98329185 57362,6950.195,96.107,574.593,569.528,0.0
56791.0,STARLINK-5977,PAYLOAD,2024-06-12 04:58:56,14.98333758,0.0003663,69.9984,146.6351,266.2391,93.8349,0.00014479,1.635e-05,0.0,0 STARLINK-5977,1 56791U 23078AA  24164.20759958  .00001635  00000-0  14479-3 0  9993,2 56791  69.9984 146.6351 0003663 266.2391  93.8349 14.98333758 57759,6950.181,96.107,574.592,569.5,0.0
56791.0,STARLINK-5977,PAYLOAD,2024-06-12 06:35:04,14.98334259,0.000365,69.9984,146.4667,266.2448,93.8293,0.00014814,1.675e-05,0.0,0 STARLINK-5977,1 56791U 23078AA  24164.27435902  .00001675  00000-0  14814-3 0  9997,2 56791  69.9984 146.4667 0003650 266.2448  93.8293 14.98334259 57504,6950.18,96.107,574.582,569.508,0.0
56791.0,STARLINK-5977,PAYLOAD,2024-06-12 22:36:25,14.98330277,0.0003614,69.9984,144.7842,268.0273,92.0472,4.5888e-06,-3.8e-07,0.0,0 STARLINK-5977,1 56791U 23078AA  24164.94196407 -.00000038  00000-0  45888-5 0  9995,2 56791  69.9984 144.7842 0003614 268.0273  92.0472 14.98330277 57603,6950.192,96.107,574.569,569.545,0.0
